{
  "type": "FeatureCollection",
  "features": [
    {
      "type": "Feature",
      "properties": {
        "norad_id": 30377,
        "name": "FENGYUN 1C DEB",
        "group": "fengyun-1c-debris",
        "lat": -79.29354222135986,
        "lon": 52.28936450185001,
        "alt_km": 822.6171991744923,
        "timestamp": "2025-12-02T13:52:17.538161+00:00",
        "meta_object_name": "FENGYUN 1C DEB",
        "meta_object_id": "1999-025ACQ",
        "meta_epoch": "2025-12-02T07:29:27.504960",
        "meta_mean_motion": 13.99154982,
        "meta_eccentricity": 0.01182365,
        "meta_inclination": 98.8951,
        "meta_ra_of_asc_node": 356.1065,
        "meta_arg_of_pericenter": 295.7847,
        "meta_mean_anomaly": 82.2681,
        "meta_ephemeris_type": 0,
        "meta_classification_type": "U",
        "meta_norad_cat_id": 30377,
        "meta_element_set_no": 999,
        "meta_rev_at_epoch": 96061,
        "meta_bstar": 0.00037729311,
        "meta_mean_motion_dot": 5.37e-06,
        "meta_mean_motion_ddot": 0,
        "tle_line1": "1 30377U 99025ACQ 25336.31212390  .00000537  00000+0  37729-3 0  9990",
        "tle_line2": "2 30377  98.8951 356.1065 0118236 295.7847  82.2681 13.99154982960611"
      },
      "geometry": {
        "type": "Point",
        "coordinates": [
          52.28936450185001,
          -79.29354222135986
        ]
      }
    },
    {
      "type": "Feature",
      "properties": {
        "norad_id": 30379,
        "name": "FENGYUN 1C DEB",
        "group": "fengyun-1c-debris",
        "lat": 69.11320582303414,
        "lon": -32.20720966138589,
        "alt_km": 873.1912325482508,
        "timestamp": "2025-12-02T13:52:17.538171+00:00",
        "meta_object_name": "FENGYUN 1C DEB",
        "meta_object_id": "1999-025ACS",
        "meta_epoch": "2025-12-02T07:01:03.156096",
        "meta_mean_motion": 14.08016966,
        "meta_eccentricity": 0.00356704,
        "meta_inclination": 98.7588,
        "meta_ra_of_asc_node": 351.3447,
        "meta_arg_of_pericenter": 309.4406,
        "meta_mean_anomaly": 114.438,
        "meta_ephemeris_type": 0,
        "meta_classification_type": "U",
        "meta_norad_cat_id": 30379,
        "meta_element_set_no": 999,
        "meta_rev_at_epoch": 96670,
        "meta_bstar": 0.00038497218,
        "meta_mean_motion_dot": 6.16e-06,
        "meta_mean_motion_ddot": 0,
        "tle_line1": "1 30379U 99025ACS 25336.29239764  .00000616  00000+0  38497-3 0  9994",
        "tle_line2": "2 30379  98.7588 351.3447 0035670 309.4406 114.4380 14.08016966966703"
      },
      "geometry": {
        "type": "Point",
        "coordinates": [
          -32.20720966138589,
          69.11320582303414
        ]
      }
    },
    {
      "type": "Feature",
      "properties": {
        "norad_id": 30380,
        "name": "FENGYUN 1C DEB",
        "group": "fengyun-1c-debris",
        "lat": -7.029465950659224,
        "lon": 24.707245212530495,
        "alt_km": 757.6818329310554,
        "timestamp": "2025-12-02T13:52:17.538181+00:00",
        "meta_object_name": "FENGYUN 1C DEB",
        "meta_object_id": "1999-025ACT",
        "meta_epoch": "2025-12-02T02:18:59.732352",
        "meta_mean_motion": 14.50619227,
        "meta_eccentricity": 0.01771531,
        "meta_inclination": 98.9162,
        "meta_ra_of_asc_node": 23.0881,
        "meta_arg_of_pericenter": 249.5634,
        "meta_mean_anomaly": 108.6459,
        "meta_ephemeris_type": 0,
        "meta_classification_type": "U",
        "meta_norad_cat_id": 30380,
        "meta_element_set_no": 999,
        "meta_rev_at_epoch": 99411,
        "meta_bstar": 0.00032811724,
        "meta_mean_motion_dot": 1.514e-05,
        "meta_mean_motion_ddot": 0,
        "tle_line1": "1 30380U 99025ACT 25336.09652468  .00001514  00000+0  32812-3 0  9997",
        "tle_line2": "2 30380  98.9162  23.0881 0177153 249.5634 108.6459 14.50619227994114"
      },
      "geometry": {
        "type": "Point",
        "coordinates": [
          24.707245212530495,
          -7.029465950659224
        ]
      }
    },
    {
      "type": "Feature",
      "properties": {
        "norad_id": 30381,
        "name": "FENGYUN 1C DEB",
        "group": "fengyun-1c-debris",
        "lat": -73.42675919721874,
        "lon": 160.30071875307448,
        "alt_km": 891.609775733059,
        "timestamp": "2025-12-02T13:52:17.538192+00:00",
        "meta_object_name": "FENGYUN 1C DEB",
        "meta_object_id": "1999-025ACU",
        "meta_epoch": "2025-12-02T00:46:16.130496",
        "meta_mean_motion": 14.12883963,
        "meta_eccentricity": 0.00550495,
        "meta_inclination": 98.8157,
        "meta_ra_of_asc_node": 11.1932,
        "meta_arg_of_pericenter": 106.2398,
        "meta_mean_anomaly": 254.484,
        "meta_ephemeris_type": 0,
        "meta_classification_type": "U",
        "meta_norad_cat_id": 30381,
        "meta_element_set_no": 999,
        "meta_rev_at_epoch": 92015,
        "meta_bstar": 0.0012049152,
        "meta_mean_motion_dot": 2.232e-05,
        "meta_mean_motion_ddot": 0,
        "tle_line1": "1 30381U 99025ACU 25336.03213114  .00002232  00000+0  12049-2 0  9990",
        "tle_line2": "2 30381  98.8157  11.1932 0055049 106.2398 254.4840 14.12883963920153"
      },
      "geometry": {
        "type": "Point",
        "coordinates": [
          160.30071875307448,
          -73.42675919721874
        ]
      }
    },
    {
      "type": "Feature",
      "properties": {
        "norad_id": 30382,
        "name": "FENGYUN 1C DEB",
        "group": "fengyun-1c-debris",
        "lat": 27.958148844376954,
        "lon": -160.18292672650722,
        "alt_km": 869.0053497261288,
        "timestamp": "2025-12-02T13:52:17.538202+00:00",
        "meta_object_name": "FENGYUN 1C DEB",
        "meta_object_id": "1999-025ACV",
        "meta_epoch": "2025-12-02T01:39:20.283264",
        "meta_mean_motion": 14.25215665,
        "meta_eccentricity": 0.01553978,
        "meta_inclination": 98.5003,
        "meta_ra_of_asc_node": 14.7709,
        "meta_arg_of_pericenter": 28.3317,
        "meta_mean_anomaly": 31.7419,
        "meta_ephemeris_type": 0,
        "meta_classification_type": "U",
        "meta_norad_cat_id": 30382,
        "meta_element_set_no": 999,
        "meta_rev_at_epoch": 97383,
        "meta_bstar": 0.00093767387,
        "meta_mean_motion_dot": 2.457e-05,
        "meta_mean_motion_ddot": 0,
        "tle_line1": "1 30382U 99025ACV 25336.06898476  .00002457  00000+0  93767-3 0  9990",
        "tle_line2": "2 30382  98.5003  14.7709 0155397  28.3317  31.7419 14.25215665973837"
      },
      "geometry": {
        "type": "Point",
        "coordinates": [
          -160.18292672650722,
          27.958148844376954
        ]
      }
    },
    {
      "type": "Feature",
      "properties": {
        "norad_id": 30385,
        "name": "FENGYUN 1C DEB",
        "group": "fengyun-1c-debris",
        "lat": -28.837768938030983,
        "lon": 1.7434989061714539,
        "alt_km": 680.8382739545596,
        "timestamp": "2025-12-02T13:52:17.538212+00:00",
        "meta_object_name": "FENGYUN 1C DEB",
        "meta_object_id": "1999-025ACY",
        "meta_epoch": "2025-12-02T00:47:06.338400",
        "meta_mean_motion": 14.38749507,
        "meta_eccentricity": 0.01250051,
        "meta_inclination": 99.0827,
        "meta_ra_of_asc_node": 356.1134,
        "meta_arg_of_pericenter": 321.2401,
        "meta_mean_anomaly": 66.7364,
        "meta_ephemeris_type": 0,
        "meta_classification_type": "U",
        "meta_norad_cat_id": 30385,
        "meta_element_set_no": 999,
        "meta_rev_at_epoch": 98615,
        "meta_bstar": 0.00036065957,
        "meta_mean_motion_dot": 1.159e-05,
        "meta_mean_motion_ddot": 0,
        "tle_line1": "1 30385U 99025ACY 25336.03271225  .00001159  00000+0  36066-3 0  9994",
        "tle_line2": "2 30385  99.0827 356.1134 0125005 321.2401  66.7364 14.38749507986154"
      },
      "geometry": {
        "type": "Point",
        "coordinates": [
          1.7434989061714539,
          -28.837768938030983
        ]
      }
    },
    {
      "type": "Feature",
      "properties": {
        "norad_id": 30386,
        "name": "FENGYUN 1C DEB",
        "group": "fengyun-1c-debris",
        "lat": -37.241428753564335,
        "lon": 46.37371059437244,
        "alt_km": 872.0323366452985,
        "timestamp": "2025-12-02T13:52:17.538222+00:00",
        "meta_object_name": "FENGYUN 1C DEB",
        "meta_object_id": "1999-025ACZ",
        "meta_epoch": "2025-11-30T04:52:53.522400",
        "meta_mean_motion": 13.55522281,
        "meta_eccentricity": 0.03034699,
        "meta_inclination": 98.69,
        "meta_ra_of_asc_node": 230.954,
        "meta_arg_of_pericenter": 188.4777,
        "meta_mean_anomaly": 325.644,
        "meta_ephemeris_type": 0,
        "meta_classification_type": "U",
        "meta_norad_cat_id": 30386,
        "meta_element_set_no": 999,
        "meta_rev_at_epoch": 92659,
        "meta_bstar": 0.001361829,
        "meta_mean_motion_dot": 1.234e-05,
        "meta_mean_motion_ddot": 0,
        "tle_line1": "1 30386U 99025ACZ 25334.20339725  .00001234  00000+0  13618-2 0  9993",
        "tle_line2": "2 30386  98.6900 230.9540 0303469 188.4777 325.6440 13.55522281926593"
      },
      "geometry": {
        "type": "Point",
        "coordinates": [
          46.37371059437244,
          -37.241428753564335
        ]
      }
    }
  ]
}